<?xml version="1.0" encoding="UTF-8"?>
<ndm xmlns:xsi="http://www.w3.org/2001/XMLSchema-instance" xsi:noNamespaceSchemaLocation="https://sanaregistry.org/r/ndmxml_unqualified/ndmxml-2.0.0-master-2.0.xsd">
<omm id="CCSDS_OMM_VERS" version="2.0">
<header><CREATION_DATE/><ORIGINATOR/></header><body><segment><metadata><OBJECT_NAME>ORBCOMM FM24</OBJECT_NAME><OBJECT_ID>1998-053D</OBJECT_ID><CENTER_NAME>EARTH</CENTER_NAME><REF_FRAME>TEME</REF_FRAME><TIME_SYSTEM>UTC</TIME_SYSTEM><MEAN_ELEMENT_THEORY>SGP4</MEAN_ELEMENT_THEORY></metadata><data><meanElements><EPOCH>2024-12-17T04:18:56.768544</EPOCH><MEAN_MOTION>14.37183500</MEAN_MOTION><ECCENTRICITY>.0001731</ECCENTRICITY><INCLINATION>45.0088</INCLINATION><RA_OF_ASC_NODE>51.5297</RA_OF_ASC_NODE><ARG_OF_PERICENTER>303.9898</ARG_OF_PERICENTER><MEAN_ANOMALY>56.0786</MEAN_ANOMALY></meanElements><tleParameters><EPHEMERIS_TYPE>0</EPHEMERIS_TYPE><CLASSIFICATION_TYPE>U</CLASSIFICATION_TYPE><NORAD_CAT_ID>25478</NORAD_CAT_ID><ELEMENT_SET_NO>999</ELEMENT_SET_NO><REV_AT_EPOCH>37153</REV_AT_EPOCH><BSTAR>.90144E-3</BSTAR><MEAN_MOTION_DOT>.2566E-4</MEAN_MOTION_DOT><MEAN_MOTION_DDOT>0</MEAN_MOTION_DDOT></tleParameters></data></segment></body></omm>
<omm id="CCSDS_OMM_VERS" version="2.0">
<header><CREATION_DATE/><ORIGINATOR/></header><body><segment><metadata><OBJECT_NAME>ORBCOMM FM25</OBJECT_NAME><OBJECT_ID>1998-053E</OBJECT_ID><CENTER_NAME>EARTH</CENTER_NAME><REF_FRAME>TEME</REF_FRAME><TIME_SYSTEM>UTC</TIME_SYSTEM><MEAN_ELEMENT_THEORY>SGP4</MEAN_ELEMENT_THEORY></metadata><data><meanElements><EPOCH>2024-12-16T20:53:29.837472</EPOCH><MEAN_MOTION>14.37164330</MEAN_MOTION><ECCENTRICITY>.0002268</ECCENTRICITY><INCLINATION>45.0079</INCLINATION><RA_OF_ASC_NODE>51.2485</RA_OF_ASC_NODE><ARG_OF_PERICENTER>18.1966</ARG_OF_PERICENTER><MEAN_ANOMALY>341.8962</MEAN_ANOMALY></meanElements><tleParameters><EPHEMERIS_TYPE>0</EPHEMERIS_TYPE><CLASSIFICATION_TYPE>U</CLASSIFICATION_TYPE><NORAD_CAT_ID>25479</NORAD_CAT_ID><ELEMENT_SET_NO>999</ELEMENT_SET_NO><REV_AT_EPOCH>37150</REV_AT_EPOCH><BSTAR>.82726E-3</BSTAR><MEAN_MOTION_DOT>.2342E-4</MEAN_MOTION_DOT><MEAN_MOTION_DDOT>0</MEAN_MOTION_DDOT></tleParameters></data></segment></body></omm>
<omm id="CCSDS_OMM_VERS" version="2.0">
<header><CREATION_DATE/><ORIGINATOR/></header><body><segment><metadata><OBJECT_NAME>ORBCOMM FM26</OBJECT_NAME><OBJECT_ID>1998-053F</OBJECT_ID><CENTER_NAME>EARTH</CENTER_NAME><REF_FRAME>TEME</REF_FRAME><TIME_SYSTEM>UTC</TIME_SYSTEM><MEAN_ELEMENT_THEORY>SGP4</MEAN_ELEMENT_THEORY></metadata><data><meanElements><EPOCH>2024-12-16T20:08:58.498944</EPOCH><MEAN_MOTION>14.36368369</MEAN_MOTION><ECCENTRICITY>.000363</ECCENTRICITY><INCLINATION>45.0076</INCLINATION><RA_OF_ASC_NODE>46.6240</RA_OF_ASC_NODE><ARG_OF_PERICENTER>64.8025</ARG_OF_PERICENTER><MEAN_ANOMALY>295.3199</MEAN_ANOMALY></meanElements><tleParameters><EPHEMERIS_TYPE>0</EPHEMERIS_TYPE><CLASSIFICATION_TYPE>U</CLASSIFICATION_TYPE><NORAD_CAT_ID>25480</NORAD_CAT_ID><ELEMENT_SET_NO>999</ELEMENT_SET_NO><REV_AT_EPOCH>37142</REV_AT_EPOCH><BSTAR>.87792E-3</BSTAR><MEAN_MOTION_DOT>.2452E-4</MEAN_MOTION_DOT><MEAN_MOTION_DDOT>0</MEAN_MOTION_DDOT></tleParameters></data></segment></body></omm>
<omm id="CCSDS_OMM_VERS" version="2.0">
<header><CREATION_DATE/><ORIGINATOR/></header><body><segment><metadata><OBJECT_NAME>ORBCOMM FM27</OBJECT_NAME><OBJECT_ID>1998-053G</OBJECT_ID><CENTER_NAME>EARTH</CENTER_NAME><REF_FRAME>TEME</REF_FRAME><TIME_SYSTEM>UTC</TIME_SYSTEM><MEAN_ELEMENT_THEORY>SGP4</MEAN_ELEMENT_THEORY></metadata><data><meanElements><EPOCH>2024-12-17T03:18:56.521152</EPOCH><MEAN_MOTION>14.37166434</MEAN_MOTION><ECCENTRICITY>.000231</ECCENTRICITY><INCLINATION>45.0062</INCLINATION><RA_OF_ASC_NODE>50.2311</RA_OF_ASC_NODE><ARG_OF_PERICENTER>262.4675</ARG_OF_PERICENTER><MEAN_ANOMALY>97.5910</MEAN_ANOMALY></meanElements><tleParameters><EPHEMERIS_TYPE>0</EPHEMERIS_TYPE><CLASSIFICATION_TYPE>U</CLASSIFICATION_TYPE><NORAD_CAT_ID>25481</NORAD_CAT_ID><ELEMENT_SET_NO>999</ELEMENT_SET_NO><REV_AT_EPOCH>37151</REV_AT_EPOCH><BSTAR>.96757E-3</BSTAR><MEAN_MOTION_DOT>.2763E-4</MEAN_MOTION_DOT><MEAN_MOTION_DDOT>0</MEAN_MOTION_DDOT></tleParameters></data></segment></body></omm>
<omm id="CCSDS_OMM_VERS" version="2.0">
<header><CREATION_DATE/><ORIGINATOR/></header><body><segment><metadata><OBJECT_NAME>ORBCOMM FM28</OBJECT_NAME><OBJECT_ID>1998-053H</OBJECT_ID><CENTER_NAME>EARTH</CENTER_NAME><REF_FRAME>TEME</REF_FRAME><TIME_SYSTEM>UTC</TIME_SYSTEM><MEAN_ELEMENT_THEORY>SGP4</MEAN_ELEMENT_THEORY></metadata><data><meanElements><EPOCH>2024-12-17T03:16:10.074144</EPOCH><MEAN_MOTION>14.37459575</MEAN_MOTION><ECCENTRICITY>.0001939</ECCENTRICITY><INCLINATION>45.0066</INCLINATION><RA_OF_ASC_NODE>348.0702</RA_OF_ASC_NODE><ARG_OF_PERICENTER>90.2564</ARG_OF_PERICENTER><MEAN_ANOMALY>269.8506</MEAN_ANOMALY></meanElements><tleParameters><EPHEMERIS_TYPE>0</EPHEMERIS_TYPE><CLASSIFICATION_TYPE>U</CLASSIFICATION_TYPE><NORAD_CAT_ID>25482</NORAD_CAT_ID><ELEMENT_SET_NO>999</ELEMENT_SET_NO><REV_AT_EPOCH>37232</REV_AT_EPOCH><BSTAR>.84602E-3</BSTAR><MEAN_MOTION_DOT>.2413E-4</MEAN_MOTION_DOT><MEAN_MOTION_DDOT>0</MEAN_MOTION_DDOT></tleParameters></data></segment></body></omm>
<omm id="CCSDS_OMM_VERS" version="2.0">
<header><CREATION_DATE/><ORIGINATOR/></header><body><segment><metadata><OBJECT_NAME>ORBCOMM FM30</OBJECT_NAME><OBJECT_ID>1999-065A</OBJECT_ID><CENTER_NAME>EARTH</CENTER_NAME><REF_FRAME>TEME</REF_FRAME><TIME_SYSTEM>UTC</TIME_SYSTEM><MEAN_ELEMENT_THEORY>SGP4</MEAN_ELEMENT_THEORY></metadata><data><meanElements><EPOCH>2024-12-16T20:23:07.335744</EPOCH><MEAN_MOTION>14.36522622</MEAN_MOTION><ECCENTRICITY>.0005757</ECCENTRICITY><INCLINATION>45.0308</INCLINATION><RA_OF_ASC_NODE>232.3170</RA_OF_ASC_NODE><ARG_OF_PERICENTER>170.0168</ARG_OF_PERICENTER><MEAN_ANOMALY>190.0796</MEAN_ANOMALY></meanElements><tleParameters><EPHEMERIS_TYPE>0</EPHEMERIS_TYPE><CLASSIFICATION_TYPE>U</CLASSIFICATION_TYPE><NORAD_CAT_ID>25980</NORAD_CAT_ID><ELEMENT_SET_NO>999</ELEMENT_SET_NO><REV_AT_EPOCH>30822</REV_AT_EPOCH><BSTAR>.63468E-3</BSTAR><MEAN_MOTION_DOT>.1739E-4</MEAN_MOTION_DOT><MEAN_MOTION_DDOT>0</MEAN_MOTION_DDOT></tleParameters></data></segment></body></omm>
<omm id="CCSDS_OMM_VERS" version="2.0">
<header><CREATION_DATE/><ORIGINATOR/></header><body><segment><metadata><OBJECT_NAME>ORBCOMM FM31</OBJECT_NAME><OBJECT_ID>1999-065B</OBJECT_ID><CENTER_NAME>EARTH</CENTER_NAME><REF_FRAME>TEME</REF_FRAME><TIME_SYSTEM>UTC</TIME_SYSTEM><MEAN_ELEMENT_THEORY>SGP4</MEAN_ELEMENT_THEORY></metadata><data><meanElements><EPOCH>2024-12-16T21:17:03.274080</EPOCH><MEAN_MOTION>14.36492960</MEAN_MOTION><ECCENTRICITY>.0003098</ECCENTRICITY><INCLINATION>45.0220</INCLINATION><RA_OF_ASC_NODE>225.7003</RA_OF_ASC_NODE><ARG_OF_PERICENTER>194.8935</ARG_OF_PERICENTER><MEAN_ANOMALY>165.1822</MEAN_ANOMALY></meanElements><tleParameters><EPHEMERIS_TYPE>0</EPHEMERIS_TYPE><CLASSIFICATION_TYPE>U</CLASSIFICATION_TYPE><NORAD_CAT_ID>25981</NORAD_CAT_ID><ELEMENT_SET_NO>999</ELEMENT_SET_NO><REV_AT_EPOCH>30778</REV_AT_EPOCH><BSTAR>.63194E-3</BSTAR><MEAN_MOTION_DOT>.173E-4</MEAN_MOTION_DOT><MEAN_MOTION_DDOT>0</MEAN_MOTION_DDOT></tleParameters></data></segment></body></omm>
<omm id="CCSDS_OMM_VERS" version="2.0">
<header><CREATION_DATE/><ORIGINATOR/></header><body><segment><metadata><OBJECT_NAME>ORBCOMM FM32</OBJECT_NAME><OBJECT_ID>1999-065C</OBJECT_ID><CENTER_NAME>EARTH</CENTER_NAME><REF_FRAME>TEME</REF_FRAME><TIME_SYSTEM>UTC</TIME_SYSTEM><MEAN_ELEMENT_THEORY>SGP4</MEAN_ELEMENT_THEORY></metadata><data><meanElements><EPOCH>2024-12-16T22:48:36.766656</EPOCH><MEAN_MOTION>14.35527734</MEAN_MOTION><ECCENTRICITY>.0004882</ECCENTRICITY><INCLINATION>45.0151</INCLINATION><RA_OF_ASC_NODE>240.7435</RA_OF_ASC_NODE><ARG_OF_PERICENTER>198.1491</ARG_OF_PERICENTER><MEAN_ANOMALY>161.9183</MEAN_ANOMALY></meanElements><tleParameters><EPHEMERIS_TYPE>0</EPHEMERIS_TYPE><CLASSIFICATION_TYPE>U</CLASSIFICATION_TYPE><NORAD_CAT_ID>25982</NORAD_CAT_ID><ELEMENT_SET_NO>999</ELEMENT_SET_NO><REV_AT_EPOCH>30840</REV_AT_EPOCH><BSTAR>.68381E-3</BSTAR><MEAN_MOTION_DOT>.1845E-4</MEAN_MOTION_DOT><MEAN_MOTION_DDOT>0</MEAN_MOTION_DDOT></tleParameters></data></segment></body></omm>

</ndm>
